{"type":"FeatureCollection","features":[{"type":"Feature","properties":{"plaza":"Plaza Martí y Monsó","bares":"Restaurante Caroba, El Corregidor, Wabi-Sabi. Taberna japonesa y La Bambalina"},"geometry":{"type":"Polygon","coordinates":[[[-4.730357,41.652258],[-4.730578,41.652263],[-4.730698,41.651713],[-4.730317,41.651778],[-4.730357,41.652258]]]}},{"type":"Feature","properties":{"plaza":"Calixto Fernández de la Torre","bares":"La Criolla"},"geometry":{"type":"Polygon","coordinates":[[[-4.730291,41.651902],[-4.730281,41.651778],[-4.729517,41.651747],[-4.729221,41.651808],[-4.729238,41.651917],[-4.729565,41.651881],[-4.730291,41.651902]]]}},{"type":"Feature","properties":{"plaza":"Campanas","bares":"La Vermutería"},"geometry":{"type":"Polygon","coordinates":[[[-4.730308,41.652272],[-4.730294,41.652168],[-4.729792,41.652194],[-4.729842,41.652323],[-4.730308,41.652272]]]}},{"type":"Feature","properties":{"plaza":"Correos","bares":"El Corcho"},"geometry":{"type":"Polygon","coordinates":[[[-4.729901,41.652693],[-4.729845,41.652384],[-4.729697,41.651952],[-4.729531,41.651942],[-4.729707,41.652732],[-4.729901,41.652693]]]}},{"type":"Feature","properties":{"plaza":"Pasión","bares":"La Mejillonera (caseta doble) y Los Zagales"},"geometry":{"type":"Polygon","coordinates":[[[-4.730534,41.651337],[-4.730468,41.651149],[-4.729015,41.651465],[-4.729137,41.65167],[-4.730534,41.651337]]]}},{"type":"Feature","properties":{"plaza":"Lateral de San Benito","bares":"Ángela, Five Napoli Pizza, La Cartuja, Patrón, El Secreto y Ditaly"},"geometry":{"type":"Polygon","coordinates":[[[-4.730501,41.653653],[-4.730492,41.653492],[-4.729556,41.653369],[-4.729522,41.653621],[-4.730501,41.653653]]]}},{"type":"Feature","properties":{"plaza":"San Benito","bares":"La Loca Burguer, El Consejero, Matamales, Madame X y La Casa de la Sepia y el Pulpo"},"geometry":{"type":"Polygon","coordinates":[[[-4.729539,41.654001],[-4.729591,41.653662],[-4.729026,41.653608],[-4.729099,41.654001],[-4.729539,41.654001]]]}},{"type":"Feature","properties":{"plaza":"Fuente Dorada","bares":"Le Bistró y Taberna Mianka"},"geometry":{"type":"Polygon","coordinates":[[[-4.726709,41.65239],[-4.726503,41.651995],[-4.72585,41.652144],[-4.726709,41.65239]]]}},{"type":"Feature","properties":{"plaza":"Ferrari","bares":"100 Montaditos, Bar Argolla Tapas, La Barra del Hidalgo y La Malquerida"},"geometry":{"type":"Polygon","coordinates":[[[-4.72776,41.65184],[-4.72767,41.65161],[-4.726556,41.651931],[-4.726641,41.65209],[-4.72776,41.65184]]]}},{"type":"Feature","properties":{"plaza":"Matías Sangrador","bares":"Griller Chef y The Macanudo"},"geometry":{"type":"Polygon","coordinates":[[[-4.727249,41.652215],[-4.727159,41.652048],[-4.726655,41.652193],[-4.726744,41.65237],[-4.727249,41.652215]]]}},{"type":"Feature","properties":{"plaza":"Plaza de la Universidad","bares":"La Tasca Castellana, Foodie, El capote de Mario, La Biblioteca, 10y10, Beher, Faroles Rock, Deltoya, La Antigua y El Escudo del Paraíso"},"geometry":{"type":"Polygon","coordinates":[[[-4.722344,41.653218],[-4.722824,41.652816],[-4.722191,41.652482],[-4.721673,41.65294],[-4.722108,41.653261],[-4.722344,41.653218]]]}},{"type":"Feature","properties":{"plaza":"Cadenas de San Gregorio","bares":"Gondomatik y Café con Ron"},"geometry":{"type":"Polygon","coordinates":[[[-4.722989,41.65754],[-4.723908,41.65705],[-4.723779,41.65685],[-4.722092,41.657623],[-4.721984,41.657895],[-4.722989,41.65754]]]}},{"type":"Feature","properties":{"plaza":"Solanilla","bares":"La Solana y Don Bacalao"},"geometry":{"type":"Polygon","coordinates":[[[-4.723191,41.654337],[-4.723319,41.654232],[-4.723202,41.653934],[-4.722835,41.654172],[-4.723191,41.654337]]]}},{"type":"Feature","properties":{"plaza":"Lateral de la Catedral","bares":"La Famiglia se Sienta a la Mesa, Café Ibérico, Taberna Pucelana, Mamataco y Bundi"},"geometry":{"type":"Polygon","coordinates":[[[-4.723787,41.653014],[-4.724237,41.652638],[-4.724138,41.65252],[-4.723414,41.653072],[-4.723495,41.653238],[-4.723787,41.653014]]]}},{"type":"Feature","properties":{"plaza":"Rastro","bares":"Talavera Restaurante"},"geometry":{"type":"Polygon","coordinates":[[[-4.726754,41.648303],[-4.726912,41.648036],[-4.726378,41.647943],[-4.725947,41.648172],[-4.726754,41.648303]]]}},{"type":"Feature","properties":{"plaza":"Recoletos","bares":"La pícara, Amberes, Lunático, La dársena de La Victoria, Groove, Chester British Tavern, Gastrobar Sabores, Manantial El Cuarto, River Valley, Selvatico y  El Lagar"},"geometry":{"type":"Polygon","coordinates":[[[-4.729521,41.647594],[-4.728286,41.645284],[-4.7277,41.645619],[-4.72899,41.64779],[-4.729521,41.647594]]]}},{"type":"Feature","properties":{"plaza":"María de Molina","bares":"Señorito Pico Fino, El Angelillo y Salaveinte"},"geometry":{"type":"Polygon","coordinates":[[[-4.73029,41.649549],[-4.73036,41.649453],[-4.730249,41.64912],[-4.7298,41.649148],[-4.73029,41.649549]]]}},{"type":"Feature","properties":{"plaza":"Plaza de Santa Ana","bares":"La Pera, Rioluz Gastronomía, Cafetín de Las Francesas y La Corona de la Santina"},"geometry":{"type":"Polygon","coordinates":[[[-4.73075,41.651314],[-4.731167,41.651133],[-4.731014,41.650785],[-4.730672,41.65088],[-4.730606,41.651256],[-4.73075,41.651314]]]}},{"type":"Feature","properties":{"plaza":"Avenida de Medina del Campo","bares":"Barlladolid"},"geometry":{"type":"Polygon","coordinates":[[[-4.74813,41.633952],[-4.74828,41.633367],[-4.744578,41.632925],[-4.74445,41.633687],[-4.74813,41.633952]]]}},{"type":"Feature","properties":{"bares":"Turuleca, Palosanto Andiamo, La Castellana, El Fiu Topin Fartón, Bundi y Acapulco","plaza":"Paseo de Zorrilla (Lucense)"},"geometry":{"type":"Polygon","coordinates":[[[-4.738404,41.64073],[-4.738928,41.639465],[-4.738416,41.639309],[-4.737772,41.640596],[-4.737832,41.640725],[-4.738404,41.64073]]]}},{"type":"Feature","properties":{"plaza":"Paseo de Zorrilla, 3","bares":"Moka"},"geometry":{"type":"Polygon","coordinates":[[[-4.734947,41.644003],[-4.735347,41.643743],[-4.735065,41.643567],[-4.734751,41.643871],[-4.734947,41.644003]]]}},{"type":"Feature","properties":{"plaza":"Plaza de Santa Cruz","bares":"Manducca, Ocho Apellidos Castellanos, La Carnicería y El Faro"},"geometry":{"type":"Polygon","coordinates":[[[-4.72035,41.65186],[-4.72093,41.651747],[-4.720476,41.650816],[-4.719899,41.65116],[-4.72035,41.65186]]]}},{"type":"Feature","properties":{"plaza":"Plaza del Salvador","bares":"El Barco"},"geometry":{"type":"Polygon","coordinates":[[[-4.725009,41.651283],[-4.72528,41.65093],[-4.724948,41.650718],[-4.724544,41.651102],[-4.725009,41.651283]]]}}]}