{"type":"FeatureCollection","features":[{"type":"Feature","geometry":{"type":"Point","coordinates":[-4.737655,41.616503,0]},"properties":{"styleUrl":"#pointStyleMap","icon":"http://maps.google.com/mapfiles/kml/shapes/placemark_circle.png","calle":"Avenida de Zamora, 51","sector_antes":"Industria","sector_ahora":"Servicios","negocio_antes":"Ceylo","negocio_ahora":"Gas express","marker-size":"large"}},{"type":"Feature","geometry":{"type":"Point","coordinates":[-4.73613,41.618861,0]},"properties":{"styleUrl":"#pointStyleMap","icon":"http://maps.google.com/mapfiles/kml/shapes/placemark_circle.png","calle":"Calle Vázquez de Menchaca, 38","sector_antes":"Comercio","sector_ahora":"Comercio","negocio_antes":"Muebles hiper Tresillo","negocio_ahora":"Gadis","marker-size":"large"}},{"type":"Feature","geometry":{"type":"Point","coordinates":[-4.735225,41.618863,0]},"properties":{"styleUrl":"#pointStyleMap","icon":"http://maps.google.com/mapfiles/kml/shapes/placemark_circle.png","calle":"Calle Vázquez de Menchaca, 21","sector_antes":"Industria","sector_ahora":"Hostelería","negocio_antes":"Lanas Romera","negocio_ahora":"Miyaki sushi","marker-size":"large"}},{"type":"Feature","geometry":{"type":"Point","coordinates":[-4.735169,41.619988,0]},"properties":{"styleUrl":"#pointStyleMap","icon":"http://maps.google.com/mapfiles/kml/shapes/placemark_circle.png","calle":"Calle Vázquez de Menchaca, 36","sector_antes":"Industria","sector_ahora":"Ocio","negocio_antes":"Frigoríficos Callesa","negocio_ahora":"Salta King","marker-size":"large"}},{"type":"Feature","geometry":{"type":"Point","coordinates":[-4.73372,41.623466,0]},"properties":{"styleUrl":"#pointStyleMap","icon":"http://maps.google.com/mapfiles/kml/shapes/placemark_circle.png","calle":"Calle Vázquez de Menchaca, 18","sector_antes":"Industria","sector_ahora":"Servicios","negocio_antes":"Reciclado de Chatarra y Metales","negocio_ahora":"BIKI","marker-size":"large"}},{"type":"Feature","geometry":{"type":"Point","coordinates":[-4.730501,41.626064,0]},"properties":{"styleUrl":"#pointStyleMap","icon":"http://maps.google.com/mapfiles/kml/shapes/placemark_circle.png","calle":"Calle Vázquez de Menchaca, 1","sector_antes":"Comercio","sector_ahora":"Ocio","negocio_antes":"LibreDis","negocio_ahora":"Crossfit Argales","marker-size":"large"}},{"type":"Feature","geometry":{"type":"Point","coordinates":[-4.730468,41.624563,0]},"properties":{"styleUrl":"#pointStyleMap","icon":"http://maps.google.com/mapfiles/kml/shapes/placemark_circle.png","calle":"Calle Vázquez de Menchaca, 5","sector_antes":"Comercio","sector_ahora":"Comercio","negocio_antes":"Liquidatodo muebles","negocio_ahora":"La Traca","marker-size":"large"}},{"type":"Feature","geometry":{"type":"Point","coordinates":[-4.73613,41.618861,0]},"properties":{"styleUrl":"#pointStyleMap","icon":"http://maps.google.com/mapfiles/kml/shapes/placemark_circle.png","calle":"Calle Vázquez de Menchaca, 38","sector_antes":"Industria","sector_ahora":"Hostelería","negocio_antes":"Imprenta Manolete","negocio_ahora":"Burger King","marker-size":"large"}},{"type":"Feature","geometry":{"type":"Point","coordinates":[-4.735182,41.618144,0]},"properties":{"styleUrl":"#pointStyleMap","icon":"http://maps.google.com/mapfiles/kml/shapes/placemark_circle.png","calle":"Calle Vázquez de Menchaca, 23","sector_antes":"Servicios","sector_ahora":"Ocio","negocio_antes":"Transportes Souto","negocio_ahora":"The Players","marker-size":"large"}},{"type":"Feature","geometry":{"type":"Point","coordinates":[-4.733347,41.621755,0]},"properties":{"styleUrl":"#pointStyleMap","icon":"http://maps.google.com/mapfiles/kml/shapes/placemark_circle.png","calle":"Calle Vázquez de Menchaca, 15","sector_antes":"Industria","sector_ahora":"Servicios","negocio_antes":"Hormigones Rodríguez","negocio_ahora":"Elecnor","marker-size":"large"}},{"type":"Feature","geometry":{"type":"Point","coordinates":[-4.736427,41.618318,0]},"properties":{"styleUrl":"#pointStyleMap","icon":"http://maps.google.com/mapfiles/kml/shapes/placemark_circle.png","calle":"Calle Vázquez de Menchaca, 42","sector_antes":"Servicios","sector_ahora":"Comercio","negocio_antes":"Ricalsa","negocio_ahora":"Flume","marker-size":"large"}},{"type":"Feature","geometry":{"type":"Point","coordinates":[-4.737655,41.616503,0]},"properties":{"styleUrl":"#pointStyleMap","icon":"http://maps.google.com/mapfiles/kml/shapes/placemark_circle.png","calle":"Calle Bronce, 2","sector_antes":"Comercio","sector_ahora":"Hostelería","negocio_antes":"Mimo Sofá","negocio_ahora":"Antequera GP","marker-size":"large"}},{"type":"Feature","geometry":{"type":"Point","coordinates":[-4.735557,41.615036,0]},"properties":{"styleUrl":"#pointStyleMap","icon":"http://maps.google.com/mapfiles/kml/shapes/placemark_circle.png","calle":"Calle Bronce, 0","sector_antes":"Comercio","sector_ahora":"Comercio","negocio_antes":"Decoración Alonso","negocio_ahora":"J.Abad Codelco (Fontanería)","marker-size":"large"}},{"type":"Feature","geometry":{"type":"Point","coordinates":[-4.735419,41.615032,0]},"properties":{"styleUrl":"#pointStyleMap","icon":"http://maps.google.com/mapfiles/kml/shapes/placemark_circle.png","calle":"Calle Bronce, 1","sector_antes":"Asociación","sector_ahora":"Servicios","negocio_antes":"Aspaym","negocio_ahora":"NGP automoción","marker-size":"large"}},{"type":"Feature","geometry":{"type":"Point","coordinates":[-4.732957,41.627513,0]},"properties":{"styleUrl":"#pointStyleMap","icon":"http://maps.google.com/mapfiles/kml/shapes/placemark_circle.png","calle":"Avenida de el Norte de Castilla, 3","sector_antes":"Industria","sector_ahora":"Educación","negocio_antes":"Lex Nova","negocio_ahora":"Centro Formación Profesional","marker-size":"large"}},{"type":"Feature","geometry":{"type":"Point","coordinates":[-4.736611,41.620252,0]},"properties":{"styleUrl":"#pointStyleMap","icon":"http://maps.google.com/mapfiles/kml/shapes/placemark_circle.png","calle":"Avenida de el Norte de Castilla, 50","sector_antes":"Comercio","sector_ahora":"Servicios","negocio_antes":"Ladecor","negocio_ahora":"Mapfre","marker-size":"large"}},{"type":"Feature","geometry":{"type":"Point","coordinates":[-4.736041,41.619888,0]},"properties":{"styleUrl":"#pointStyleMap","icon":"http://maps.google.com/mapfiles/kml/shapes/placemark_circle.png","calle":"Avenida de el Norte de Castilla, 49","sector_antes":"Servicio","sector_ahora":"Comercio","negocio_antes":"Lavandería Yoga","negocio_ahora":"Venta fruta","marker-size":"large"}},{"type":"Feature","geometry":{"type":"Point","coordinates":[-4.736825,41.620566,0]},"properties":{"styleUrl":"#pointStyleMap","icon":"http://maps.google.com/mapfiles/kml/shapes/placemark_circle.png","calle":"Avenida de el Norte de Castilla, 48","sector_antes":"Servicio","sector_ahora":"Comercio","negocio_antes":"Lavandería Flisa","negocio_ahora":"Compra metales Met & Fer","marker-size":"large"}},{"type":"Feature","geometry":{"type":"Point","coordinates":[-4.735983,41.622942,0]},"properties":{"styleUrl":"#pointStyleMap","icon":"http://maps.google.com/mapfiles/kml/shapes/placemark_circle.png","calle":"Avenida de el Norte de Castilla, 32","sector_antes":"Servicio","sector_ahora":"Ocio","negocio_antes":"Correos y Telégrafos","negocio_ahora":"Geko Aventura","marker-size":"large"}},{"type":"Feature","geometry":{"type":"Point","coordinates":[-4.734967,41.624277,0]},"properties":{"styleUrl":"#pointStyleMap","icon":"http://maps.google.com/mapfiles/kml/shapes/placemark_circle.png","calle":"Avenida de el Norte de Castilla, 22,","sector_antes":"Comercio","sector_ahora":"Ocio","negocio_antes":"Parsins caramelos","negocio_ahora":"Vacceos Box","marker-size":"large"}},{"type":"Feature","geometry":{"type":"Point","coordinates":[-4.733169,41.629143,0]},"properties":{"styleUrl":"#pointStyleMap","icon":"http://maps.google.com/mapfiles/kml/shapes/placemark_circle.png","calle":"Avenida de el Norte de Castilla, 2","sector_antes":"Industria","sector_ahora":"Servicios","negocio_antes":"Aceros Heva","negocio_ahora":"Taller Amaro Cerezo","marker-size":"large"}},{"type":"Feature","geometry":{"type":"Point","coordinates":[-4.733001,41.626509,0]},"properties":{"styleUrl":"#pointStyleMap","icon":"http://maps.google.com/mapfiles/kml/shapes/placemark_circle.png","calle":"Avenida de el Norte de Castilla, 9","sector_antes":"Servicios","sector_ahora":"Comercio","negocio_antes":"Talleres Gerardo Sanz","negocio_ahora":"Hipertresillo","marker-size":"large"}},{"type":"Feature","geometry":{"type":"Point","coordinates":[-4.73378,41.627091,0]},"properties":{"styleUrl":"#pointStyleMap","icon":"http://maps.google.com/mapfiles/kml/shapes/placemark_circle.png","calle":"Avenida de el Norte de Castilla, 14","sector_antes":"Servicios","sector_ahora":"Comercio","negocio_antes":"GBO SL","negocio_ahora":"Milantiguo","marker-size":"large"}},{"type":"Feature","geometry":{"type":"Point","coordinates":[-4.732709,41.628089,0]},"properties":{"styleUrl":"#pointStyleMap","icon":"http://maps.google.com/mapfiles/kml/shapes/placemark_circle.png","calle":"Avenida de el Norte de Castilla, 1","sector_antes":"Industria","sector_ahora":"Servicios","negocio_antes":"Cevelsa","negocio_ahora":"Pensión","marker-size":"large"}},{"type":"Feature","geometry":{"type":"Point","coordinates":[-4.727268,41.619975,0]},"properties":{"styleUrl":"#pointStyleMap","icon":"http://maps.google.com/mapfiles/kml/shapes/placemark_circle.png","calle":"Avenida Madrid, 22","sector_antes":"Comercio","sector_ahora":"Ocio","negocio_antes":"Peugot","negocio_ahora":"Puppy Park","marker-size":"large"}},{"type":"Feature","geometry":{"type":"Point","coordinates":[-4.736728,41.623821,0]},"properties":{"styleUrl":"#pointStyleMap","icon":"http://maps.google.com/mapfiles/kml/shapes/placemark_circle.png","calle":"Calle de Pilar Miró, 29","sector_antes":"Comercio","sector_ahora":"Comercio","negocio_antes":"Thisa (Fontantería)","negocio_ahora":"Novelec (Electricidad)","marker-size":"large"}},{"type":"Feature","geometry":{"type":"Point","coordinates":[-4.73592,41.626547,0]},"properties":{"styleUrl":"#pointStyleMap","icon":"http://maps.google.com/mapfiles/kml/shapes/placemark_circle.png","calle":"Calle de Pilar Miró, 21","sector_antes":"Servicio","sector_ahora":"Servicios","negocio_antes":"Tourline Express (transporte, mensajería, logística)","negocio_ahora":"Grúas Ávila","marker-size":"large"}},{"type":"Feature","geometry":{"type":"Point","coordinates":[-4.735837,41.629422,0]},"properties":{"styleUrl":"#pointStyleMap","icon":"http://maps.google.com/mapfiles/kml/shapes/placemark_circle.png","calle":"Calle de Pilar Miró, 1","sector_antes":"Servicio","sector_ahora":"Servicios","negocio_antes":"Grafolex (Empresa artes gráficas)","negocio_ahora":"Biodata Devices","marker-size":"large"}},{"type":"Feature","geometry":{"type":"Point","coordinates":[-4.728998,41.6278,0]},"properties":{"styleUrl":"#pointStyleMap","icon":"http://maps.google.com/mapfiles/kml/shapes/placemark_circle.png","calle":"Calle de Daniel del Olmo González, 41","sector_antes":"Comercio","sector_ahora":"Servicios","negocio_antes":"Compra venta vehículos","negocio_ahora":"Plenergy","marker-size":"large"}},{"type":"Feature","geometry":{"type":"Point","coordinates":[-4.732395,41.627585,0]},"properties":{"styleUrl":"#pointStyleMap","icon":"http://maps.google.com/mapfiles/kml/shapes/placemark_circle.png","calle":"Calle de Daniel del Olmo González, 16","sector_antes":"Comercio","sector_ahora":"Servicios","negocio_antes":"Telefurgó","negocio_ahora":"PetroPrix","marker-size":"large"}},{"type":"Feature","geometry":{"type":"Point","coordinates":[-4.73205,41.627844,0]},"properties":{"styleUrl":"#pointStyleMap","icon":"http://maps.google.com/mapfiles/kml/shapes/placemark_circle.png","calle":"Calle de Daniel del Olmo González, 19","sector_antes":"Industria","sector_ahora":"Ocio","negocio_antes":"Panificadora Manrique","negocio_ahora":"Parque Infantil","marker-size":"large"}},{"type":"Feature","geometry":{"type":"Point","coordinates":[-4.733776,41.627757,0]},"properties":{"styleUrl":"#pointStyleMap","icon":"http://maps.google.com/mapfiles/kml/shapes/placemark_circle.png","calle":"Calle de Daniel del Olmo González, 14","sector_antes":"Banco","sector_ahora":"Ocio","negocio_antes":"Banco de Castilla","negocio_ahora":"Federación de Golf de CyL","marker-size":"large"}},{"type":"Feature","geometry":{"type":"Point","coordinates":[-4.734463,41.62806,0]},"properties":{"styleUrl":"#pointStyleMap","icon":"http://maps.google.com/mapfiles/kml/shapes/placemark_circle.png","calle":"Calle de Daniel del Olmo González, 10","sector_antes":"Industria","sector_ahora":"Servicios","negocio_antes":"HEVA","negocio_ahora":"Megarueda","marker-size":"large"}},{"type":"Feature","geometry":{"type":"Point","coordinates":[-4.734142,41.628586,0]},"properties":{"styleUrl":"#pointStyleMap","icon":"http://maps.google.com/mapfiles/kml/shapes/placemark_circle.png","calle":"Calle de Daniel del Olmo González, 9","sector_antes":"Comercio","sector_ahora":"Servicios","negocio_antes":"Muebles de todo en La Vaca","negocio_ahora":"Inhostel","marker-size":"large"}},{"type":"Feature","geometry":{"type":"Point","coordinates":[-4.7347,41.628122,0]},"properties":{"styleUrl":"#pointStyleMap","icon":"http://maps.google.com/mapfiles/kml/shapes/placemark_circle.png","calle":"Calle de Daniel del Olmo González, 8","sector_antes":"Industria","sector_ahora":"Hostelería","negocio_antes":"Alco","negocio_ahora":"Eleven","marker-size":"large"}},{"type":"Feature","geometry":{"type":"Point","coordinates":[-4.7347,41.628122,0]},"properties":{"styleUrl":"#pointStyleMap","icon":"http://maps.google.com/mapfiles/kml/shapes/placemark_circle.png","calle":"Calle de Daniel del Olmo González, 8","sector_antes":"Industria","sector_ahora":"Ocio","negocio_antes":"Alco","negocio_ahora":"Ingoal (indoor sport club)","marker-size":"large"}},{"type":"Feature","geometry":{"type":"Point","coordinates":[-4.735169,41.628678,0]},"properties":{"styleUrl":"#pointStyleMap","icon":"http://maps.google.com/mapfiles/kml/shapes/placemark_circle.png","calle":"Calle de Daniel del Olmo González, 1","sector_antes":"Industria","sector_ahora":"Comercio","negocio_antes":"Garsesa (Señalizaciones tráfico)","negocio_ahora":"Argales Center (Hiper Bazar)","marker-size":"large"}},{"type":"Feature","geometry":{"type":"Point","coordinates":[-4.733779,41.62471,0]},"properties":{"styleUrl":"#pointStyleMap","icon":"http://maps.google.com/mapfiles/kml/shapes/placemark_circle.png","calle":"Calle Forja, 15","sector_antes":"Comercio","sector_ahora":"Ocio","negocio_antes":"ARC Automóviles","negocio_ahora":"Go Basket","marker-size":"large"}},{"type":"Feature","geometry":{"type":"Point","coordinates":[-4.734225,41.629318,0]},"properties":{"styleUrl":"#pointStyleMap","icon":"http://maps.google.com/mapfiles/kml/shapes/placemark_circle.png","calle":"Calle Metal, 6","sector_antes":"Industria","sector_ahora":"Servicios","negocio_antes":"Elecnor","negocio_ahora":"La Vid Iglesia","marker-size":"large"}},{"type":"Feature","geometry":{"type":"Point","coordinates":[-4.733637,41.629077,0]},"properties":{"styleUrl":"#pointStyleMap","icon":"http://maps.google.com/mapfiles/kml/shapes/placemark_circle.png","calle":"Calle Metal, 10","sector_antes":"Comercio","sector_ahora":"Servicios","negocio_antes":"Javier Artículos Regalo","negocio_ahora":"Iglesia Evangleíca Vino nuevo","marker-size":"large"}},{"type":"Feature","geometry":{"type":"Point","coordinates":[-4.734744,41.62959,0]},"properties":{"styleUrl":"#pointStyleMap","icon":"http://maps.google.com/mapfiles/kml/shapes/placemark_circle.png","calle":"Calle Metal, 2","sector_antes":"Industria","sector_ahora":"Comercio","negocio_antes":"Electrónicos Pisuerga","negocio_ahora":"Distribuidor Canon","marker-size":"large"}},{"type":"Feature","geometry":{"type":"Point","coordinates":[-4.731956,41.62971,0]},"properties":{"styleUrl":"#pointStyleMap","icon":"http://maps.google.com/mapfiles/kml/shapes/placemark_circle.png","calle":"Calle Metal, 13","sector_antes":"Comercio","sector_ahora":"Comercio","negocio_antes":"Urende Electrodomésticos","negocio_ahora":"Top Cash","marker-size":"large"}}]}